NORAD_CAT_ID,OBJECT_NAME,OBJECT_TYPE,EPOCH,MEAN_MOTION,ECCENTRICITY,INCLINATION,RA_OF_ASC_NODE,ARG_OF_PERICENTER,MEAN_ANOMALY,BSTAR,MEAN_MOTION_DOT,MEAN_MOTION_DDOT,TLE_LINE0,TLE_LINE1,TLE_LINE2,SEMIMAJOR_AXIS,PERIOD,APOGEE,PERIGEE,DECAYED
55640.0,STARLINK-5069,PAYLOAD,2024-02-20 18:52:03,14.98319241,0.000303,69.997,270.1448,271.9904,88.0908,-0.00013262,-1.675e-05,0.0,0 STARLINK-5069,1 55640U 23021N   24051.78615261 -.00001675  00000-0 -13262-3 0  9994,2 55640  69.9970 270.1448 0003030 271.9904  88.0908 14.98319241 56462,6950.226,96.108,574.197,569.985,0.0
55640.0,STARLINK-5069,PAYLOAD,2024-02-20 22:04:19,14.9832202,0.0002917,69.997,269.8082,271.3157,88.7667,-9.6759e-05,-1.247e-05,0.0,0 STARLINK-5069,1 55640U 23021N   24051.91967060 -.00001247  00000-0 -96759-4 0  9994,2 55640  69.9970 269.8082 0002917 271.3157  88.7667 14.98322020 56781,6950.218,96.108,574.11,570.055,0.0
55640.0,STARLINK-5069,PAYLOAD,2024-02-21 07:41:07,14.98327649,0.0002952,69.997,268.7981,271.3135,88.7686,-6.2788e-05,-8.42e-06,0.0,0 STARLINK-5069,1 55640U 23021N   24052.32022788 -.00000842  00000-0 -62788-4 0  9994,2 55640  69.9970 268.7981 0002952 271.3135  88.7686 14.98327649 56549,6950.2,96.107,574.117,570.013,0.0
55640.0,STARLINK-5069,PAYLOAD,2024-02-21 14:05:40,14.98322286,0.0003014,69.9969,268.1245,270.7647,89.3167,5.851e-05,6.05e-06,0.0,0 STARLINK-5069,1 55640U 23021N   24052.58726881  .00000605  00000-0  58510-4 0  9990,2 55640  69.9969 268.1245 0003014 270.7647  89.3167 14.98322286 56885,6950.217,96.107,574.177,569.987,0.0
55640.0,STARLINK-5069,PAYLOAD,2024-02-21 22:06:19,14.98337406,0.0002851,69.997,267.2828,272.2267,87.8566,-8.5961e-05,-1.119e-05,0.0,0 STARLINK-5069,1 55640U 23021N   24052.92106476 -.00001119  00000-0 -85961-4 0  9993,2 55640  69.9970 267.2828 0002851 272.2267  87.8566 14.98337406 56939,6950.17,96.107,574.016,570.053,0.0
55640.0,STARLINK-5069,PAYLOAD,2024-02-22 07:43:08,14.98323587,0.0002875,69.9972,266.2729,271.0169,89.0661,0.0002225,2.562e-05,0.0,0 STARLINK-5069,1 55640U 23021N   24053.32162664  .00002562  00000-0  22250-3 0  9991,2 55640  69.9972 266.2729 0002875 271.0169  89.0661 14.98323587 56692,6950.213,96.107,574.076,570.08,0.0
55640.0,STARLINK-5069,PAYLOAD,2024-02-22 14:07:40,14.983296,0.0002854,69.9973,265.6,271.9436,88.1396,0.0001628,1.85e-05,0.0,0 STARLINK-5069,1 55640U 23021N   24053.58866530  .00001850  00000-0  16280-3 0  9997,2 55640  69.9973 265.6000 0002854 271.9436  88.1396 14.98329600 57037,6950.194,96.107,574.043,570.076,0.0
55640.0,STARLINK-5069,PAYLOAD,2024-02-22 22:08:20,14.98333613,0.0002857,69.9973,264.7583,272.233,87.8502,0.00015606,1.77e-05,0.0,0 STARLINK-5069,1 55640U 23021N   24053.92246259  .00001770  00000-0  15606-3 0  9997,2 55640  69.9973 264.7583 0002857 272.2330  87.8502 14.98333613 57082,6950.182,96.107,574.032,570.061,0.0
55640.0,STARLINK-5069,PAYLOAD,2024-02-22 23:44:28,14.98334602,0.0002856,69.9973,264.59,272.3024,87.7808,0.00016323,1.855e-05,0.0,0 STARLINK-5069,1 55640U 23021N   24053.98922156  .00001855  00000-0  16323-3 0  9991,2 55640  69.9973 264.5900 0002856 272.3024  87.7808 14.98334602 56797,6950.179,96.107,574.029,570.059,0.0
55640.0,STARLINK-5069,PAYLOAD,2024-02-23 14:09:40,14.98340077,0.0002818,69.9974,263.075,272.4707,87.6129,7.6632e-05,8.22e-06,0.0,0 STARLINK-5069,1 55640U 23021N   24054.59005764  .00000822  00000-0  76632-4 0  9999,2 55640  69.9974 263.0750 0002818 272.4707  87.6129 14.98340077 57184,6950.162,96.106,573.985,570.068,0.0
55640.0,STARLINK-5069,PAYLOAD,2024-02-23 22:10:20,14.98342345,0.0002823,69.9977,262.2332,272.4018,87.6818,7.3133e-05,7.8e-06,0.0,0 STARLINK-5069,1 55640U 23021N   24054.92385366  .00000780  00000-0  73133-4 0  9991,2 55640  69.9977 262.2332 0002823 272.4018  87.6818 14.98342345 57236,6950.155,96.106,573.982,570.058,0.0
55640.0,STARLINK-5069,PAYLOAD,2024-02-23 23:46:28,14.98343288,0.0002817,69.9977,262.0648,272.3963,87.6873,8.155e-05,8.8e-06,0.0,0 STARLINK-5069,1 55640U 23021N   24054.99061225  .00000880  00000-0  81550-4 0  9996,2 55640  69.9977 262.0648 0002817 272.3963  87.6873 14.98343288 56940,6950.152,96.106,573.975,570.059,0.0
55640.0,STARLINK-5069,PAYLOAD,2024-02-24 14:11:41,14.98337832,0.0002736,69.998,260.5497,272.8041,87.2804,-5.8276e-05,-7.88e-06,0.0,0 STARLINK-5069,1 55640U 23021N   24055.59145550 -.00000788  00000-0 -58276-4 0  9995,2 55640  69.9980 260.5497 0002736 272.8041  87.2804 14.98337832 57333,6950.169,96.106,573.935,570.132,0.0
55640.0,STARLINK-5069,PAYLOAD,2024-02-24 20:36:13,14.98336895,0.0002725,69.998,259.8763,272.5963,87.4885,-5.1788e-05,-7.11e-06,0.0,0 STARLINK-5069,1 55640U 23021N   24055.85849428 -.00000711  00000-0 -51788-4 0  9996,2 55640  69.9980 259.8763 0002725 272.5963  87.4885 14.98336895 57078,6950.172,96.107,573.93,570.143,0.0
55640.0,STARLINK-5069,PAYLOAD,2024-02-25 14:13:42,14.98338607,0.0002686,69.9985,258.0247,273.2866,86.7985,-6.4739e-05,-8.65e-06,0.0,0 STARLINK-5069,1 55640U 23021N   24056.59284961 -.00000865  00000-0 -64739-4 0  9993,2 55640  69.9985 258.0247 0002686 273.2866  86.7985 14.98338607 57488,6950.166,96.106,573.898,570.164,0.0
55640.0,STARLINK-5069,PAYLOAD,2024-02-25 20:38:14,14.98336382,0.0002719,69.9987,257.3508,275.7008,84.3841,-6.9947e-05,-9.28e-06,0.0,0 STARLINK-5069,1 55640U 23021N   24056.85988979 -.00000928  00000-0 -69947-4 0  9998,2 55640  69.9987 257.3508 0002719 275.7008  84.3841 14.98336382 57229,6950.173,96.107,573.928,570.148,0.0
55640.0,STARLINK-5069,PAYLOAD,2024-02-25 22:14:22,14.98336675,0.0002715,69.9988,257.1825,275.701,84.3839,-6.484e-05,-8.67e-06,0.0,0 STARLINK-5069,1 55640U 23021N   24056.92664917 -.00000867  00000-0 -64840-4 0  9998,2 55640  69.9988 257.1825 0002715 275.7010  84.3839 14.98336675 57535,6950.172,96.107,573.924,570.15,0.0
55640.0,STARLINK-5069,PAYLOAD,2024-02-26 14:15:43,14.98328134,0.0002723,69.9989,255.4997,272.118,87.9667,-4.5933e-05,-6.41e-06,0.0,0 STARLINK-5069,1 55640U 23021N   24057.59425220 -.00000641  00000-0 -45933-4 0  9996,2 55640  69.9989 255.4997 0002723 272.1180  87.9667 14.98328134 57635,6950.199,96.107,573.956,570.171,0.0
55640.0,STARLINK-5069,PAYLOAD,2024-02-26 19:04:07,14.98326917,0.0002734,69.9988,254.995,270.5004,89.5841,-5.3997e-05,-7.37e-06,0.0,0 STARLINK-5069,1 55640U 23021N   24057.79453328 -.00000737  00000-0 -53997-4 0  9993,2 55640  69.9988 254.9950 0002734 270.5004  89.5841 14.98326917 57365,6950.202,96.107,573.968,570.167,0.0
55640.0,STARLINK-5069,PAYLOAD,2024-02-26 22:16:23,14.98326116,0.0002739,69.9988,254.6584,270.4787,89.6059,-6.0173e-05,-8.11e-06,0.0,0 STARLINK-5069,1 55640U 23021N   24057.92805419 -.00000811  00000-0 -60173-4 0  9997,2 55640  69.9988 254.6584 0002739 270.4787  89.6059 14.98326116 57685,6950.205,96.107,573.974,570.166,0.0
55640.0,STARLINK-5069,PAYLOAD,2024-02-27 14:17:44,14.98329578,0.0002731,69.9988,252.9752,267.7209,92.3637,-1.8135e-05,-3.09e-06,0.0,0 STARLINK-5069,1 55640U 23021N   24058.59565136 -.00000309  00000-0 -18135-4 0  9993,2 55640  69.9988 252.9752 0002731 267.7209  92.3637 14.98329578 57782,6950.194,96.107,573.957,570.161,0.0
55640.0,STARLINK-5069,PAYLOAD,2024-02-27 19:06:08,14.98329677,0.0002746,69.9987,252.47,267.6352,92.4492,-1.937e-05,-3.24e-06,0.0,0 STARLINK-5069,1 55640U 23021N   24058.79593133 -.00000324  00000-0 -19370-4 0  9992,2 55640  69.9987 252.4700 0002746 267.6352  92.4492 14.98329677 57514,6950.194,96.107,573.967,570.15,0.0
55640.0,STARLINK-5069,PAYLOAD,2024-02-27 22:18:24,14.98329791,0.0002748,69.9987,252.1334,267.742,92.3424,-1.6608e-05,-2.91e-06,0.0,0 STARLINK-5069,1 55640U 23021N   24058.92945124 -.00000291  00000-0 -16608-4 0  9992,2 55640  69.9987 252.1334 0002748 267.7420  92.3424 14.98329791 57839,6950.194,96.107,573.968,570.149,0.0
55640.0,STARLINK-5069,PAYLOAD,2024-02-28 14:19:45,14.98324377,0.0002808,69.9984,250.4494,268.0319,92.0518,1.6592e-05,1.05e-06,0.0,0 STARLINK-5069,1 55640U 23021N   24059.59705463  .00000105  00000-0  16592-4 0  9990,2 55640  69.9984 250.4494 0002808 268.0319  92.0518 14.98324377 57939,6950.21,96.107,574.027,570.124,0.0
55640.0,STARLINK-5069,PAYLOAD,2024-02-28 19:08:09,14.98324672,0.0002776,69.9987,249.9446,268.1804,91.9037,2.2889e-05,1.8e-06,0.0,0 STARLINK-5069,1 55640U 23021N   24059.79733491  .00000180  00000-0  22889-4 0  9993,2 55640  69.9987 249.9446 0002776 268.1804  91.9037 14.98324672 57668,6950.209,96.107,574.004,570.145,0.0
55640.0,STARLINK-5069,PAYLOAD,2024-02-28 22:20:25,14.98324468,0.000279,69.9987,249.6079,268.1016,91.9823,1.7957e-05,1.21e-06,0.0,0 STARLINK-5069,1 55640U 23021N   24059.93085559  .00000121  00000-0  17957-4 0  9999,2 55640  69.9987 249.6079 0002790 268.1016  91.9823 14.98324468 57989,6950.21,96.107,574.014,570.136,0.0
55640.0,STARLINK-5069,PAYLOAD,2024-02-29 14:21:47,14.98317769,0.0003226,69.9969,247.9263,269.5221,90.5568,-0.00012604,-1.596e-05,0.0,0 STARLINK-5069,1 55640U 23021N   24060.59846431 -.00001596  00000-0 -12604-3 0  9999,2 55640  69.9969 247.9263 0003226 269.5221  90.5568 14.98317769 58082,6950.231,96.108,574.338,569.854,0.0
55640.0,STARLINK-5069,PAYLOAD,2024-02-29 20:46:20,14.9830737,0.0002627,69.9991,247.2511,267.83,92.2558,-0.00019868,-2.461e-05,0.0,0 STARLINK-5069,1 55640U 23021N   24060.86551685 -.00002461  00000-0 -19868-3 0  9994,2 55640  69.9991 247.2511 0002627 267.8300  92.2558 14.98307370 57825,6950.263,96.108,573.954,570.302,0.0
55640.0,STARLINK-5069,PAYLOAD,2024-02-29 22:22:27,14.98321408,0.0002928,69.999,247.0827,269.4844,90.598,-6.1391e-05,-8.25e-06,0.0,0 STARLINK-5069,1 55640U 23021N   24060.93226504 -.00000825  00000-0 -61391-4 0  9992,2 55640  69.9990 247.0827 0002928 269.4844  90.5980 14.98321408 58130,6950.219,96.108,574.119,570.049,0.0
55640.0,STARLINK-5069,PAYLOAD,2024-03-01 14:23:48,14.9832189,0.0002955,69.9988,245.3997,269.0667,91.0154,-5.4003e-06,-1.57e-06,0.0,0 STARLINK-5069,1 55640U 23021N   24061.59986665 -.00000157  00000-0 -54003-5 0  9997,2 55640  69.9988 245.3997 0002955 269.0667  91.0154 14.98321890 58230,6950.218,96.108,574.137,570.029,0.0
